{"fetched_at":"2026-07-24T07:06:51.030Z","source":"https://celestrak.org/NORAD/elements/gp.php?NAME=SPACEMOBILE&FORMAT=JSON","constellation":"ast-spacemobile","records":[{"OBJECT_NAME":"SPACEMOBILE-003","OBJECT_ID":"2024-163A","EPOCH":"2026-07-23T19:45:01.502784","CLASSIFICATION_TYPE":"U","MEAN_MOTION":15.2067735,"ECCENTRICITY":0.0003476,"INCLINATION":52.9689,"RA_OF_ASC_NODE":140.9699,"ARG_OF_PERICENTER":225.0265,"MEAN_ANOMALY":135.0448,"EPHEMERIS_TYPE":0,"NORAD_CAT_ID":61045,"ELEMENT_SET_NO":999,"REV_AT_EPOCH":10334,"BSTAR":0.00012101,"MEAN_MOTION_DOT":0.00002367,"MEAN_MOTION_DDOT":0},{"OBJECT_NAME":"SPACEMOBILE-005","OBJECT_ID":"2024-163B","EPOCH":"2026-07-23T05:09:29.939040","CLASSIFICATION_TYPE":"U","MEAN_MOTION":15.20624425,"ECCENTRICITY":0.0008301,"INCLINATION":52.974,"RA_OF_ASC_NODE":143.7232,"ARG_OF_PERICENTER":219.1098,"MEAN_ANOMALY":140.9297,"EPHEMERIS_TYPE":0,"NORAD_CAT_ID":61046,"ELEMENT_SET_NO":999,"REV_AT_EPOCH":10324,"BSTAR":0.000082557,"MEAN_MOTION_DOT":0.00001507,"MEAN_MOTION_DDOT":0},{"OBJECT_NAME":"SPACEMOBILE-001","OBJECT_ID":"2024-163C","EPOCH":"2026-07-23T13:00:13.121856","CLASSIFICATION_TYPE":"U","MEAN_MOTION":15.20677408,"ECCENTRICITY":0.0006712,"INCLINATION":52.97,"RA_OF_ASC_NODE":141.925,"ARG_OF_PERICENTER":219.0311,"MEAN_ANOMALY":141.02,"EPHEMERIS_TYPE":0,"NORAD_CAT_ID":61047,"ELEMENT_SET_NO":999,"REV_AT_EPOCH":10329,"BSTAR":0.000013127,"MEAN_MOTION_DOT":-3.6e-7,"MEAN_MOTION_DDOT":0},{"OBJECT_NAME":"SPACEMOBILE-002","OBJECT_ID":"2024-163D","EPOCH":"2026-07-23T01:35:18.499776","CLASSIFICATION_TYPE":"U","MEAN_MOTION":15.20478362,"ECCENTRICITY":0.0004784,"INCLINATION":52.9773,"RA_OF_ASC_NODE":144.1623,"ARG_OF_PERICENTER":212.6215,"MEAN_ANOMALY":147.4484,"EPHEMERIS_TYPE":0,"NORAD_CAT_ID":61048,"ELEMENT_SET_NO":999,"REV_AT_EPOCH":10322,"BSTAR":0.0010167,"MEAN_MOTION_DOT":0.00022234,"MEAN_MOTION_DDOT":0},{"OBJECT_NAME":"SPACEMOBILE-004","OBJECT_ID":"2024-163E","EPOCH":"2026-07-23T02:44:04.345152","CLASSIFICATION_TYPE":"U","MEAN_MOTION":15.2062699,"ECCENTRICITY":0.0005257,"INCLINATION":52.9731,"RA_OF_ASC_NODE":143.7101,"ARG_OF_PERICENTER":250.7696,"MEAN_ANOMALY":109.273,"EPHEMERIS_TYPE":0,"NORAD_CAT_ID":61049,"ELEMENT_SET_NO":999,"REV_AT_EPOCH":10323,"BSTAR":0.00096977,"MEAN_MOTION_DOT":0.00021285,"MEAN_MOTION_DDOT":0},{"OBJECT_NAME":"SPACEMOBILE-006","OBJECT_ID":"2025-309A","EPOCH":"2026-07-23T21:32:48.642144","CLASSIFICATION_TYPE":"U","MEAN_MOTION":15.18696754,"ECCENTRICITY":0.0009427,"INCLINATION":52.9959,"RA_OF_ASC_NODE":163.4648,"ARG_OF_PERICENTER":245.2954,"MEAN_ANOMALY":114.7059,"EPHEMERIS_TYPE":0,"NORAD_CAT_ID":67232,"ELEMENT_SET_NO":999,"REV_AT_EPOCH":3217,"BSTAR":0.00016274,"MEAN_MOTION_DOT":0.00003101,"MEAN_MOTION_DDOT":0},{"OBJECT_NAME":"SPACEMOBILE-008","OBJECT_ID":"2026-139A","EPOCH":"2026-07-23T17:47:29.546016","CLASSIFICATION_TYPE":"U","MEAN_MOTION":15.12817576,"ECCENTRICITY":0.0005384,"INCLINATION":52.9953,"RA_OF_ASC_NODE":96.6069,"ARG_OF_PERICENTER":75.8493,"MEAN_ANOMALY":284.3096,"EPHEMERIS_TYPE":0,"NORAD_CAT_ID":69589,"ELEMENT_SET_NO":999,"REV_AT_EPOCH":551,"BSTAR":0.000056499,"MEAN_MOTION_DOT":0.00000702,"MEAN_MOTION_DDOT":0},{"OBJECT_NAME":"SPACEMOBILE-009","OBJECT_ID":"2026-139B","EPOCH":"2026-07-23T16:16:01.576128","CLASSIFICATION_TYPE":"U","MEAN_MOTION":15.12717485,"ECCENTRICITY":0.0005611,"INCLINATION":52.9945,"RA_OF_ASC_NODE":96.9167,"ARG_OF_PERICENTER":73.1236,"MEAN_ANOMALY":287.037,"EPHEMERIS_TYPE":0,"NORAD_CAT_ID":69590,"ELEMENT_SET_NO":999,"REV_AT_EPOCH":550,"BSTAR":0.000088645,"MEAN_MOTION_DOT":0.0000127,"MEAN_MOTION_DDOT":0},{"OBJECT_NAME":"SPACEMOBILE-010","OBJECT_ID":"2026-139C","EPOCH":"2026-07-23T16:21:49.851936","CLASSIFICATION_TYPE":"U","MEAN_MOTION":15.12554789,"ECCENTRICITY":0.0005633,"INCLINATION":52.995,"RA_OF_ASC_NODE":96.9447,"ARG_OF_PERICENTER":65.6333,"MEAN_ANOMALY":294.5246,"EPHEMERIS_TYPE":0,"NORAD_CAT_ID":69591,"ELEMENT_SET_NO":999,"REV_AT_EPOCH":551,"BSTAR":0.000093509,"MEAN_MOTION_DOT":0.00001349,"MEAN_MOTION_DDOT":0}]}
